#dP2023  1 15  0  0  0.00000000      96 __u+U ITR00 FIT  IAC
## 2245      0.00000000   900.00000000 59959 0.0000000000000
+  119   C06C07C08C09C10C11C12C13C14C16C19C20C21C22C23C24C25
+        C26C27C28C29C30C32C33C34C35C36C37C38C39C40C41C42C43
+        C44C45C46E01E02E03E04E05E07E08E09E10E11E12E13E14E15
+        E18E19E21E24E25E26E27E30E31E33E34E36G01G02G03G04G05
+        G06G07G08G09G10G11G12G13G14G15G16G17G18G19G20G21G22
+        G23G24G25G26G27G29G30G31G32J02J03J04R01R02R03R04R05
+        R07R08R09R11R12R13R14R15R16R17R18R19R20R21R22R24R25
++         8  9  9  7  9  9  7  9 10  8  8  7  7  6  7  7  8
++         7  6  6  7  6  6  8  6  6  6  6  9  9  8  8  7  6
++         8  5  6  6  7  7  4  6  6  5  5  5  6  7  6  5  5
++         5  7  7  5  6  7  6  5  5  6  6  6  5  6  4  4  4
++         4  6  5  5  5  4  5  5  5  5  6  6  5  5  5  6  5
++         5  4  6  5  5  6  6  4  5  7  8  7  5  5  6  6  6
++         7  7  6  5  7  6  4  5  6  5  7  7  7  5  7  5  5
%c M  cc GPS ccc cccc cccc cccc cccc ccccc ccccc ccccc ccccc
%c cc cc ccc ccc cccc cccc cccc cccc ccccc ccccc ccccc ccccc
%f  0.0000000  0.000000000  0.00000000000  0.000000000000000
%f  0.0000000  0.000000000  0.00000000000  0.000000000000000
%i    0    0    0    0      0      0      0      0         0
%i    0    0    0    0      0      0      0      0         0
/* INFORMATION & ANALYSIS CENTER (IAC)      ULTRA-RAPID DATA
/* S/V CLOCKS ARE ALIGNED TO GNSS TIME                      
/* G:C1WC2W R:C1PC2P E:C1XC5X C:C2IC6I J:C1CC2S             
/* PCV:IGS20_2239 OL/AL:FES2004  NONE     YN ORB:CoN CLK:CoN
*  2023 01 15 21 30  0.00000000
PC06  -9255.912550  40830.967897   6057.781925   -185.497059
PC07  -3842.789936  28040.615766 -31162.092922     10.746986
PC08 -17302.094678  25879.138981  28374.325597    527.685539
PC09  -5541.441774  42030.920633  -1838.726562    276.371871
PC10   2467.722085  29674.822013 -29394.507195     31.539864
PC11  15247.390602  -3247.000413  23219.519639   -175.942997
PC12  12651.958339  16789.932762  18392.056861    399.465251
PC13 -11485.570188  26827.840803  30484.023054    184.174684
PC14  24189.620627   1770.376071 -13739.710294    372.215081
PC16 -10298.936552  40240.868356   8291.407625     81.170284
PC19 -18554.299227   5859.365462  20033.652391   -896.928796
PC20 -25858.280251  -7924.268689   6938.973172    765.760063
PC21  18022.880927  18004.688710  11388.070025   -916.646985
PC22   -217.203328  16923.432307  22183.337820   -683.908259
PC23  11524.940956 -20389.946804  15174.510759   -871.691084
PC24  21919.130201    757.155509 -17293.330717   -536.612909
PC25  23306.453084 -15366.091551   -461.782279     56.069443
PC26   8840.565513  13695.555026 -22667.663254    -64.822160
PC27  -9076.682858 -23594.033973 -11818.333459     82.101192
PC28   2229.877496 -27423.673861   4668.098341     59.307959
PC29 -12652.964558  15115.186620 -19757.666486     67.910112
PC30 -15857.939162  -6647.944069 -21977.769299      1.275987
PC32 -18129.752723 -17874.600367 -11416.903403   -649.276850
PC33  18591.757571  -5910.010452 -19945.895388   -880.594178
PC34  15989.157432   5312.231645  22241.580896     84.446804
PC35  -2165.608966  27203.965022  -5944.628651    452.367719
PC36 -23864.033935  14411.125208   1109.957562   -692.329071
PC37  -7057.987250 -14781.100259  22599.141368   -846.817054
PC38 -23882.694708  27504.948972  21135.657074     52.184053
PC39 -11839.900267  37802.151409  14768.230926     -1.432416
PC40  -7709.859035  22482.887191 -34799.213540    -12.627996
PC41    794.491629 -16723.969258 -22272.931844   -497.915171
PC42  25852.290448   8794.392597  -5667.027191   -893.756450
PC43  13109.600470 -14268.851520  20066.802713      2.253817
PC44   9875.819276  23417.121616  11557.450577    178.377461
PC45 -11167.088322  20301.324085 -15540.325632    -47.990894
PC46 -22708.067707    838.337277  16160.115675    -26.676609
PE01 -23815.500646  -9505.410053  14770.540775   -595.114917
PE02  24100.184693   9300.749760 -14482.753446     14.915704
PE03  20370.542603  18659.086380 -10631.087696   -640.277454
PE04 -18895.615355    -77.662008  22785.420992    -36.946148
PE05   9883.155873  26707.659033   8081.371623   -104.845835
PE07   6268.689902 -18992.602059 -21820.544543    -15.435441
PE08  18822.423043    214.352596 -22845.587124    -20.032704
PE09  -6285.821793  18778.514611  21996.310066   -801.316691
PE10 -18923.640246  19384.757525 -11925.648997   -505.333793
PE11 -14868.643648  25548.459097  -1695.501699    474.880690
PE12 -19819.298948  10695.556515 -19213.805997   -385.481894
PE13  15280.832921 -25212.113517   2616.090070    429.902060
PE14    442.854522 -24569.186525  12756.458085    114.411542
PE15  19716.935749 -10397.326413  19484.282121    693.921683
PE18 -11228.989717  17397.335589 -20690.300575   -505.204828
PE19 -19499.170604 -20665.124626   8289.578139  -3478.314401
PE21  -6256.326388 -16221.008881  23949.872023   -506.460805
PE24 -17119.943702  13963.615670 -19702.253985  -1059.953988
PE25   5916.395609  16271.272398 -24009.637917   -597.255339
PE26   1240.615449 -24762.865922 -16158.981019  -1850.388006
PE27  16267.113946 -14283.282655  20194.372109   -488.552641
PE30  29156.281746  -3393.501630   3903.730246  -1163.163691
PE31 -28966.227979   3956.258418  -4588.240108   -513.413129
PE33 -12484.465435 -10429.117059 -24718.493042   -454.151763
PE34  12611.769493  10244.325015  24742.842495    -25.016295
PE36  -1935.924435  25089.100255  15603.560010   -490.953936
PG01  13965.913855 -22362.317342   -672.330497    224.005037
PG02 -10049.379907  24551.044207   3468.496168   -627.091777
PG03  13208.361531 -12601.176145 -19374.406922   -371.943543
PG04   4301.654327 -19288.874278 -17688.523028    -48.003059
PG05 -24634.202438   5813.384222   8073.731644   -112.122111
PG06 -12130.207014  -8087.499785 -22129.508108    558.996569
PG07   2913.398821 -22696.996376  13480.713235    258.197538
PG08  12437.922568  -8802.730725  21685.780539   -103.746674
PG09  -5876.259642 -24141.828081  -9398.064545   -235.844260
PG10  18160.824199  11431.967822  16024.235359    -20.553521
PG11 -18733.011825   4750.648590 -18193.799118    -79.600376
PG12 -15244.126534  11394.011914 -18760.166747   -328.520814
PG13 -15519.192289    319.904665  21399.758468    459.957555
PG14 -15490.170580 -13302.253014  17056.954572    -48.640995
PG15 -11450.716167  10742.837842  20958.686645      4.927627
PG16  26233.583838   -353.618035   5226.490075   -523.734989
PG17 -12752.053673 -22964.867310  -3130.114201    693.575454
PG18  -1272.894973  21394.463081  15598.277826   -100.503425
PG19 -16525.303202 -15837.694364 -13926.861960    264.583869
PG20 -26149.459110    579.870892  -3861.803095    456.841758
PG21  16715.763627 -18056.803766   9461.571682    153.467501
PG22  17174.409603  12677.862138 -15481.211497    406.642462
PG23   6486.007695  14557.327050  21272.657209      2.591052
PG24 -14475.491027  21539.905081   4118.462682    -31.498518
PG25  -4593.685105  15178.707860 -21580.544392    411.607668
PG26  25185.837346   4916.895975  -7611.304976    240.345045
PG27  17267.457262   3543.887978  19765.418422    126.195972
PG29   1838.064910  23775.114468 -11657.848519   -580.599854
PG30  -7528.483658 -15699.298372  20082.829291   -533.167466
PG31  14131.803293   6520.097597 -21712.994904   -206.424414
PG32  15835.382247  20596.089203  -5857.065117   -365.146248
PJ02 -33709.969661  15421.568397 -15498.463374     -0.583301
PJ03 -21225.500253  32233.170497 -12160.532722     -0.065064
PJ04 -26455.385135  27299.014670  24414.057454    118.921373
PR01 -13901.932566 -17499.546046 -12302.175928     21.315571
PR02 -21101.886456 -12759.776361   6426.097245    -23.311257
PR03 -15731.919458   -160.068008  20101.464868     70.916012
PR04  -1693.787560  11976.954119  22487.164890    172.415853
PR05  13184.806426  17854.224301  12608.841122    106.246329
PR07  15305.355036   -315.583970 -20382.203875     48.076094
PR08   1557.560041 -12126.368879 -22325.333811    -69.032500
PR09  19595.379355    185.686019 -16273.759388     98.755847
PR11  14936.503250 -14170.010280  15056.870225      6.015609
PR12  -3891.324398 -10327.725045  23015.297409     24.348460
PR13 -18483.112350  -1197.743166  17514.002729    -30.990106
PR14 -23566.275120   9771.540352    399.710942     24.232502
PR15 -14154.845580  14125.798333 -15821.921285     91.691611
PR16   3544.759022  10307.274653 -23059.908187     10.015488
PR17 -10847.235006  11076.975847 -20229.982208    596.105655
PR18  -6830.626101  23493.495783  -7291.304563     61.968794
PR19   -614.107755  24152.591679   8187.896894   -218.351011
PR20   8389.979314   9203.141815  22283.345529    -85.919078
PR21  10691.862058 -12704.207052  19378.284690   -365.709175
PR22   7529.171219 -23481.594735   6526.381119     66.773621
PR24  -9303.192216  -8304.093125 -22231.170008    139.862150
PR25  11667.328746 -10168.844524  20291.105619     51.709333
EOF
